{
  "norad_id": 61203,
  "name": "STARLINK-11292 [DTC]",
  "history": [
    {
      "epoch": "2026-03-28T16:42:27.722880",
      "apogee_km": 360.54176238323726,
      "perigee_km": 358.9432678470712,
      "latitude_deg": 21.899531059951354,
      "longitude_deg": 7.130803199950606,
      "semi_major_axis_km": 6737.8795151151535,
      "eccentricity": 0.00011862,
      "inclination_deg": 53.1593,
      "raan_deg": 82.5871,
      "arg_perigee_deg": 99.6637,
      "mean_anomaly_deg": 260.4515,
      "mean_motion_rev_day": 15.69704491
    },
    {
      "epoch": "2026-03-29T04:55:55.928352",
      "apogee_km": 360.35388615827014,
      "perigee_km": 359.1262449569258,
      "latitude_deg": 39.9546769639418,
      "longitude_deg": 56.02880928013474,
      "semi_major_axis_km": 6737.877065557598,
      "eccentricity": 9.11e-05,
      "inclination_deg": 53.1585,
      "raan_deg": 80.076,
      "arg_perigee_deg": 99.7876,
      "mean_anomaly_deg": 260.3244,
      "mean_motion_rev_day": 15.69705347
    }
  ]
}